{"type":"Feature","properties":{"source":"Natural Earth 1:10m land (public domain)","source_url":"https://raw.githubusercontent.com/nvkelso/natural-earth-vector/master/geojson/ne_10m_land.geojson","aoi":{"lon":[13.0,18.0],"lat":[53.5,57.0]},"note":"Authoritative land mask for scripts/land_guard.py. Closed polygons from a shapely intersection, not the stroked basemap in baltic_land.geojson - that one drops every landmass crossing the AOI edge to a LineString and cannot answer a point-in-polygon question.","aoi_note":"Geometry outside this AOI is not water; it is unknown. The guard raises rather than assuming."},"geometry":{"type":"MultiPolygon","coordinates":[[[[13.740082,54.32982],[13.730154,54.31684],[13.726248,54.300523],[13.726248,54.284654],[13.723155,54.278388],[13.712738,54.278998],[13.690929,54.283515],[13.702647,54.283515],[13.711925,54.286566],[13.715994,54.29328],[13.711925,54.303941],[13.705089,54.303941],[13.694835,54.297431],[13.679454,54.294013],[13.663341,54.293891],[13.651134,54.297187],[13.651134,54.303941],[13.688243,54.3133],[13.703624,54.320461],[13.711925,54.331855],[13.659923,54.329779],[13.636729,54.325507],[13.616954,54.317613],[13.67213,54.340318],[13.690929,54.344916],[13.690929,54.351752],[13.664073,54.353258],[13.650076,54.352444],[13.64031,54.348334],[13.626801,54.339097],[13.618337,54.341376],[13.610606,54.347968],[13.599294,54.351752],[13.499685,54.344916],[13.481781,54.338284],[13.428884,54.31094],[13.417735,54.300523],[13.406098,54.285224],[13.381602,54.282213],[13.35963,54.275458],[13.355724,54.248725],[13.369395,54.255561],[13.36964,54.260647],[13.367524,54.261949],[13.364757,54.26203],[13.363129,54.263007],[13.410899,54.26789],[13.417735,54.266059],[13.425059,54.243232],[13.423025,54.232733],[13.407237,54.228217],[13.378673,54.230862],[13.347016,54.237454],[13.311534,54.251125],[13.319509,54.256415],[13.32488,54.268215],[13.335216,54.283515],[13.320567,54.278388],[13.313975,54.2744],[13.307872,54.269192],[13.31186,54.266425],[13.314708,54.263007],[13.294688,54.264106],[13.28419,54.262844],[13.276866,54.259263],[13.267914,54.256496],[13.257986,54.260443],[13.24879,54.266262],[13.242442,54.269192],[13.227794,54.270819],[13.210134,54.275824],[13.199229,54.28441],[13.204845,54.297187],[13.190278,54.29975],[13.159679,54.290961],[13.149669,54.290269],[13.142833,54.298],[13.148936,54.304755],[13.162283,54.307685],[13.177501,54.303941],[13.177501,54.310207],[13.115489,54.33808],[13.129242,54.359565],[13.148936,54.377265],[13.174327,54.383979],[13.204845,54.37226],[13.211681,54.379096],[13.223318,54.372504],[13.237153,54.373969],[13.266856,54.385891],[13.25115,54.386908],[13.239268,54.393622],[13.234386,54.403388],[13.239024,54.413804],[13.239024,54.420071],[13.225352,54.420844],[13.217947,54.425686],[13.211599,54.431098],[13.201427,54.433661],[13.156993,54.426825],[13.174327,54.447659],[13.181814,54.45303],[13.208832,54.456936],[13.239024,54.466254],[13.259532,54.468451],[13.259532,54.475287],[13.260753,54.475491],[13.266856,54.477484],[13.273123,54.482123],[13.245372,54.488349],[13.233246,54.493069],[13.225352,54.501939],[13.22877,54.504299],[13.231944,54.506008],[13.233653,54.509223],[13.232758,54.516262],[13.203298,54.509467],[13.185395,54.508287],[13.177501,54.512844],[13.175304,54.516018],[13.170665,54.516791],[13.166026,54.51911],[13.163829,54.526801],[13.162608,54.535468],[13.158865,54.540676],[13.152354,54.542955],[13.143403,54.542914],[13.166352,54.549384],[13.242931,54.555976],[13.259532,54.553778],[13.264903,54.547797],[13.276541,54.545071],[13.288259,54.539944],[13.29363,54.526801],[13.297862,54.51968],[13.305512,54.523424],[13.309255,54.534817],[13.301036,54.55036],[13.31544,54.561957],[13.333669,54.573065],[13.35255,54.581448],[13.369395,54.58515],[13.358246,54.564765],[13.350759,54.555976],[13.342052,54.55036],[13.348399,54.550482],[13.353852,54.549872],[13.358653,54.547553],[13.363129,54.542914],[13.358084,54.538153],[13.348888,54.523668],[13.363292,54.523139],[13.374848,54.52558],[13.3838,54.531887],[13.389822,54.542914],[13.381358,54.544379],[13.371837,54.548896],[13.363129,54.55036],[13.363129,54.557196],[13.37672,54.564643],[13.387869,54.551256],[13.405528,54.538235],[13.417328,54.524563],[13.410899,54.509426],[13.430675,54.492743],[13.455577,54.487494],[13.507091,54.488267],[13.499685,54.495754],[13.509288,54.508979],[13.514171,54.513129],[13.520763,54.516262],[13.520763,54.523668],[13.51295,54.537543],[13.507498,54.544664],[13.499685,54.55036],[13.499685,54.557196],[13.505544,54.559719],[13.5088,54.561835],[13.512869,54.563544],[13.520763,54.564643],[13.520763,54.570787],[13.508311,54.57038],[13.500255,54.566067],[13.493907,54.560736],[13.486583,54.557196],[13.475759,54.556098],[13.441417,54.557196],[13.436046,54.56037],[13.430675,54.56745],[13.423839,54.57453],[13.414317,54.577704],[13.399262,54.579576],[13.393077,54.58454],[13.389659,54.591051],[13.382986,54.598131],[13.371349,54.6081],[13.369151,54.612128],[13.355724,54.605618],[13.347911,54.600816],[13.331798,54.587836],[13.30836,54.579576],[13.291352,54.568793],[13.273285,54.56094],[13.253266,54.564643],[13.249766,54.576483],[13.256847,54.594916],[13.269867,54.611802],[13.283946,54.619289],[13.286957,54.623521],[13.29127,54.632961],[13.293468,54.642279],[13.290538,54.646552],[13.24586,54.639797],[13.231212,54.633857],[13.224783,54.634955],[13.225352,54.646552],[13.230968,54.653306],[13.241547,54.65998],[13.253591,54.665025],[13.390798,54.688178],[13.418712,54.688422],[13.445079,54.68008],[13.445079,54.673896],[13.429698,54.666734],[13.409028,54.659817],[13.39088,54.650539],[13.382986,54.636379],[13.385997,54.618638],[13.394542,54.604438],[13.407725,54.593411],[13.424571,54.58515],[13.466319,54.57689],[13.595958,54.591376],[13.640473,54.585679],[13.670665,54.56623],[13.677257,54.540473],[13.651134,54.516262],[13.606781,54.498969],[13.584809,54.486518],[13.57545,54.471869],[13.579112,54.455064],[13.587901,54.437567],[13.599132,54.422675],[13.609548,54.413804],[13.630056,54.407538],[13.677419,54.400824],[13.698253,54.392076],[13.724864,54.363593],[13.741954,54.350491],[13.766449,54.344916],[13.753103,54.339301],[13.740082,54.32982]]],[[[13.095225,54.524359],[13.081065,54.517157],[13.075043,54.509426],[13.071462,54.499661],[13.069591,54.489651],[13.068207,54.468451],[13.061371,54.468451],[13.061371,54.482123],[13.06422,54.505113],[13.095551,54.570787],[13.102306,54.596096],[13.10963,54.603095],[13.125987,54.605618],[13.139822,54.606024],[13.151052,54.604926],[13.157237,54.599066],[13.157074,54.587958],[13.156505,54.589057],[13.153656,54.591132],[13.149669,54.591376],[13.149669,54.577704],[13.143403,54.577704],[13.143403,54.598131],[13.118907,54.586412],[13.113129,54.570054],[13.112153,54.550686],[13.10255,54.529934],[13.095225,54.524359]]],[[[15.14503,55.104885],[15.147716,55.095608],[15.144705,55.087104],[15.134288,55.074856],[15.112804,55.054633],[15.106619,55.044664],[15.110362,55.036363],[15.110362,55.030219],[15.113242,55.018295],[15.097353,55.007823],[15.086686,54.999213],[15.072666,54.991638],[15.023664,54.999339],[14.98287,55.001013],[14.927265,55.013692],[14.858607,55.038226],[14.780833,55.051128],[14.699555,55.089179],[14.684173,55.101347],[14.697045,55.122654],[14.701427,55.1647],[14.70574,55.225653],[14.709239,55.235826],[14.71754,55.246772],[14.737071,55.266669],[14.745128,55.281562],[14.752126,55.298774],[14.760916,55.309272],[14.774587,55.3039],[14.814952,55.270413],[14.828949,55.261705],[14.851422,55.2482],[14.889008,55.233222],[14.926799,55.215799],[14.954354,55.219254],[14.973399,55.216132],[14.989757,55.196031],[15.000499,55.188422],[15.012869,55.183824],[15.084543,55.154579],[15.131602,55.145453],[15.151378,55.133205],[15.146658,55.128241],[15.144542,55.124823],[15.142345,55.122138],[15.137706,55.119534],[15.14503,55.104885]]],[[[15.193858,55.319688],[15.193207,55.315945],[15.190766,55.319119],[15.191335,55.322821],[15.193858,55.319688]]],[[[14.835378,56.006293],[14.833995,56.017808],[14.83839,56.019517],[14.848318,56.018297],[14.854828,56.013332],[14.847423,56.000556],[14.841645,56.000515],[14.835378,56.006293]]],[[[14.955007,56.119249],[14.953949,56.122992],[14.963959,56.121446],[14.974783,56.122829],[14.979828,56.125474],[14.980072,56.119249],[14.973888,56.110826],[14.965831,56.116441],[14.955007,56.119249]]],[[[15.39324,56.162543],[15.406749,56.155544],[15.400564,56.145087],[15.39324,56.14883],[15.39324,56.162543]]],[[[16.46811,56.949286],[16.46339,56.938463],[16.436371,56.911119],[16.43629,56.904771],[16.439952,56.877834],[16.439789,56.866848],[16.43629,56.856879],[16.408946,56.808417],[16.40797,56.79914],[16.416026,56.787991],[16.428559,56.782945],[16.440766,56.787055],[16.452403,56.794135],[16.46339,56.797838],[16.472504,56.794379],[16.474457,56.786322],[16.47169,56.777411],[16.466563,56.771186],[16.454845,56.768297],[16.427582,56.77558],[16.412608,56.777411],[16.396821,56.774807],[16.376231,56.765692],[16.361095,56.763739],[16.356619,56.75845],[16.363048,56.746487],[16.377778,56.725898],[16.380626,56.693793],[16.379161,56.675605],[16.371593,56.661322],[16.358653,56.654446],[16.341563,56.651272],[16.324962,56.652167],[16.301117,56.663275],[16.288259,56.661322],[16.275645,56.656562],[16.264903,56.653876],[16.255219,56.650377],[16.246349,56.642401],[16.223643,56.614203],[16.220958,56.60871],[16.221202,56.603746],[16.220063,56.593004],[16.215505,56.571723],[16.213227,56.548407],[16.207042,56.53852],[16.178722,56.537055],[16.172374,56.527289],[16.166026,56.508002],[16.117686,56.455268],[16.095225,56.419379],[16.066254,56.335964],[16.038259,56.255072],[16.031505,56.249823],[16.020356,56.246405],[16.014496,56.238267],[16.010427,56.228258],[16.004405,56.219428],[15.987804,56.20775],[15.948985,56.187445],[15.93214,56.174709],[15.87436,56.102729],[15.851736,56.086371],[15.835134,56.087958],[15.816742,56.097846],[15.788748,56.106431],[15.818696,56.140041],[15.826508,56.159369],[15.806163,56.167914],[15.756684,56.156724],[15.731212,56.157213],[15.713634,56.174709],[15.702485,56.170233],[15.696788,56.173163],[15.691742,56.178616],[15.682384,56.181545],[15.670177,56.183539],[15.655772,56.192572],[15.648204,56.194566],[15.631521,56.185736],[15.611827,56.169257],[15.592133,56.160549],[15.575938,56.174709],[15.582856,56.180813],[15.592296,56.19245],[15.596202,56.203762],[15.586436,56.208889],[15.572765,56.206285],[15.534923,56.188381],[15.492931,56.176337],[15.486583,56.171332],[15.484874,56.155666],[15.479991,56.151842],[15.459809,56.161078],[15.452322,56.165961],[15.444021,56.172838],[15.433279,56.1789],[15.418224,56.181545],[15.403982,56.179755],[15.393403,56.175116],[15.37672,56.161078],[15.370372,56.151435],[15.370128,56.144924],[15.365571,56.141099],[15.320974,56.139635],[15.307302,56.14175],[15.295258,56.147406],[15.314708,56.153388],[15.322602,56.153632],[15.316742,56.163275],[15.295258,56.188381],[15.273774,56.17121],[15.234548,56.157213],[15.192393,56.152899],[15.161876,56.164496],[15.154307,56.168647],[15.146332,56.166938],[15.138682,56.163153],[15.13087,56.161078],[15.093028,56.161078],[15.085216,56.164618],[15.081716,56.182074],[15.075531,56.188381],[15.068696,56.18773],[15.044281,56.182278],[15.034679,56.181545],[15.038259,56.175442],[15.045258,56.159613],[15.049001,56.153632],[14.988455,56.169176],[14.95338,56.172919],[14.928233,56.164496],[14.906016,56.1612],[14.87322,56.16474],[14.848155,56.163967],[14.84962,56.147406],[14.830251,56.142646],[14.813324,56.150092],[14.795746,56.161282],[14.774587,56.167914],[14.724946,56.167629],[14.701345,56.161363],[14.685802,56.147406],[14.682953,56.139065],[14.681,56.127427],[14.682302,56.117133],[14.688975,56.112616],[14.70338,56.109442],[14.710297,56.101874],[14.714529,56.092678],[14.719981,56.084662],[14.748302,56.060736],[14.757986,56.048489],[14.767751,56.030707],[14.756358,56.027411],[14.743826,56.02143],[14.732188,56.014106],[14.723399,56.006537],[14.715505,56.002346],[14.71046,56.006578],[14.70574,56.017035],[14.685802,56.017035],[14.679047,56.009263],[14.673025,56.005316],[14.664724,56.006537],[14.6574,56.009263],[14.64975,56.010321],[14.621837,56.010159],[14.611501,56.011135],[14.609711,56.015326],[14.62379,56.024482],[14.615245,56.030178],[14.607677,56.037014],[14.603038,56.045966],[14.603282,56.058051],[14.582205,56.043769],[14.5713,56.050849],[14.566742,56.055609],[14.569102,56.058051],[14.556651,56.055365],[14.533458,56.045844],[14.524425,56.043769],[14.497406,56.040473],[14.478852,56.031684],[14.445567,56.002753],[14.407725,55.977037],[14.38559,55.966254],[14.366466,55.961859],[14.346446,55.953315],[14.333344,55.934516],[14.323253,55.915717],[14.311534,55.907172],[14.271007,55.894477],[14.234711,55.862698],[14.208507,55.821275],[14.198497,55.779975],[14.194184,55.741889],[14.195811,55.725653],[14.205903,55.708564],[14.222504,55.696845],[14.261078,55.680162],[14.273692,55.667629],[14.27589,55.656806],[14.275076,55.646145],[14.276052,55.634996],[14.284516,55.622952],[14.29477,55.61518],[14.316661,55.602362],[14.358165,55.563666],[14.367524,55.545396],[14.363048,55.523627],[14.348806,55.510565],[14.294688,55.475531],[14.27711,55.468411],[14.264903,55.461249],[14.219005,55.413764],[14.199718,55.398993],[14.181163,55.390815],[14.158376,55.387193],[14.094086,55.387397],[14.06422,55.390774],[14.035411,55.397121],[13.956228,55.426825],[13.930024,55.432766],[13.897227,55.434882],[13.882335,55.433051],[13.856781,55.424384],[13.842296,55.42121],[13.828136,55.421332],[13.780284,55.427436],[13.647309,55.42121],[13.629568,55.41828],[13.618175,55.410956],[13.608653,55.401801],[13.595958,55.393256],[13.580821,55.388821],[13.537852,55.393256],[13.503429,55.388373],[13.410899,55.352281],[13.381358,55.346015],[13.312511,55.342678],[13.280528,55.345445],[13.115489,55.380276],[13.061534,55.381252],[13.041759,55.385443],[13.030772,55.38642],[13.024913,55.388251],[13.008637,55.396918],[13.000011,55.400092],[13.0,55.400093675818376],[13.0,55.61534812922765],[13.027354,55.626654],[13.038341,55.635199],[13.04949,55.647121],[13.057953,55.660712],[13.061371,55.674465],[13.054861,55.694037],[13.040538,55.70539],[13.026378,55.712388],[13.011485,55.72842],[13.0,55.726782734450794],[13.0,57.0],[16.43554660051737,57.0],[16.434906,56.99787],[16.439789,56.97663],[16.449718,56.964504],[16.461436,56.95661],[16.46811,56.949286]]],[[[13.028575,54.401842],[13.040375,54.392076],[13.083669,54.378974],[13.095551,54.37226],[13.076671,54.352525],[13.08074,54.337144],[13.109223,54.310207],[13.112071,54.299302],[13.112071,54.288479],[13.114919,54.280015],[13.125987,54.276597],[13.170665,54.276597],[13.170665,54.269192],[13.161306,54.269029],[13.154633,54.26732],[13.143403,54.263007],[13.176117,54.264838],[13.228363,54.247382],[13.263194,54.242499],[13.288829,54.23428],[13.321788,54.194525],[13.348888,54.180487],[13.333344,54.174018],[13.321544,54.166815],[13.346528,54.166938],[13.3838,54.178127],[13.403494,54.173651],[13.395681,54.161933],[13.39088,54.157294],[13.382986,54.153144],[13.394786,54.148912],[13.40211,54.151313],[13.408702,54.154608],[13.417735,54.153144],[13.423188,54.148098],[13.437673,54.12519],[13.450369,54.110419],[13.465099,54.098456],[13.483572,54.091295],[13.507091,54.091051],[13.507091,54.097886],[13.498871,54.102484],[13.487478,54.113918],[13.479259,54.118354],[13.479259,54.12519],[13.602712,54.139472],[13.632335,54.147528],[13.683442,54.168036],[13.711925,54.173651],[13.716482,54.168443],[13.714692,54.164049],[13.708263,54.160875],[13.698253,54.159329],[13.698253,54.153144],[13.72877,54.143866],[13.808116,54.104682],[13.808116,54.097886],[13.793712,54.083197],[13.785492,54.06391],[13.773204,54.046332],[13.746104,54.036444],[13.758149,54.030992],[13.78712,54.009101],[13.797618,53.998928],[13.803477,53.996324],[13.831798,53.989244],[13.838634,53.986314],[13.84311,53.97956],[13.846202,53.972235],[13.849132,53.967597],[13.850271,53.964016],[13.848969,53.959459],[13.848643,53.955552],[13.85255,53.953843],[13.866873,53.954657],[13.870128,53.953843],[13.875499,53.951239],[13.881602,53.949042],[13.88795,53.947577],[13.893565,53.947089],[13.906016,53.943061],[13.907563,53.933539],[13.901378,53.922309],[13.890147,53.912909],[13.818533,53.877997],[13.808116,53.865139],[13.817068,53.852932],[13.835785,53.84748],[13.85434,53.844916],[13.862804,53.841254],[13.869151,53.830308],[13.8838,53.817694],[13.899913,53.809149],[13.910655,53.810492],[13.984223,53.773993],[14.017345,53.769517],[14.033539,53.757514],[14.037446,53.755276],[14.061534,53.756415],[14.068858,53.755276],[14.094005,53.746324],[14.10613,53.743354],[14.186534,53.739814],[14.214692,53.744859],[14.226573,53.758694],[14.234141,53.761786],[14.250173,53.759955],[14.264496,53.751614],[14.267426,53.735419],[14.259532,53.727973],[14.212738,53.708075],[14.225352,53.703762],[14.240001,53.700751],[14.256196,53.699449],[14.263927,53.699978],[14.273692,53.700629],[14.291677,53.705268],[14.304861,53.712551],[14.306163,53.720689],[14.288585,53.727973],[14.29835,53.731431],[14.301606,53.734849],[14.29835,53.738267],[14.288585,53.741645],[14.2942,53.749091],[14.304047,53.743883],[14.318044,53.739732],[14.330414,53.734198],[14.342052,53.714911],[14.356212,53.708441],[14.383556,53.700629],[14.403575,53.687812],[14.414561,53.682359],[14.458669,53.677883],[14.51238,53.666449],[14.531016,53.657782],[14.546235,53.644761],[14.579112,53.607245],[14.590587,53.598375],[14.595876,53.601304],[14.597016,53.617336],[14.601573,53.626654],[14.610037,53.632758],[14.62379,53.639228],[14.623057,53.643012],[14.622813,53.646959],[14.62379,53.652818],[14.613048,53.65469],[14.587413,53.656073],[14.575938,53.659654],[14.544932,53.704047],[14.551443,53.726142],[14.575938,53.769517],[14.587413,53.763495],[14.597341,53.765204],[14.608246,53.769029],[14.62379,53.769517],[14.61671,53.794745],[14.620372,53.814846],[14.627289,53.832709],[14.630626,53.851508],[14.62379,53.851508],[14.621349,53.839545],[14.613536,53.83161],[14.58961,53.817328],[14.595876,53.810492],[14.587087,53.812649],[14.580089,53.815334],[14.574474,53.819078],[14.569102,53.824164],[14.574229,53.827094],[14.583263,53.834215],[14.58961,53.837836],[14.575857,53.854804],[14.552094,53.862779],[14.441173,53.869615],[14.425548,53.879828],[14.438162,53.899319],[14.434906,53.901313],[14.434093,53.901597],[14.433767,53.902411],[14.431895,53.906155],[14.422048,53.896145],[14.414236,53.894721],[14.405772,53.897406],[14.393809,53.899319],[14.385102,53.897284],[14.378266,53.89232],[14.371593,53.885891],[14.363048,53.879381],[14.392914,53.875963],[14.40919,53.871568],[14.417654,53.865139],[14.415701,53.853013],[14.405284,53.844184],[14.392589,53.840725],[14.383556,53.844672],[14.356212,53.834459],[14.342621,53.831855],[14.328298,53.831],[14.328298,53.824164],[14.342052,53.82099],[14.341319,53.818915],[14.328298,53.817328],[14.318858,53.818183],[14.303071,53.823065],[14.291352,53.824164],[14.274669,53.830797],[14.226573,53.871975],[14.203136,53.878323],[14.200857,53.87816],[14.087413,53.870429],[14.065115,53.872382],[14.04835,53.879381],[14.025076,53.863837],[13.99586,53.853746],[13.938487,53.844672],[13.875255,53.844062],[13.840099,53.850287],[13.821788,53.865139],[13.834727,53.867987],[13.855479,53.877387],[13.887706,53.881537],[13.922374,53.893378],[13.931651,53.899319],[13.938975,53.928209],[13.901866,53.969794],[13.90447,53.995429],[13.954845,53.993598],[13.972667,53.989244],[13.965831,53.981838],[13.968272,53.976264],[13.960297,53.956732],[13.958995,53.940863],[13.97462,53.957343],[13.987478,53.961412],[14.027843,53.961371],[14.022634,53.95897],[14.018565,53.956366],[14.01588,53.952704],[14.014334,53.947089],[14.04835,53.940863],[14.040294,53.953843],[14.053071,53.97842],[14.05128,54.005072],[14.037446,54.021715],[14.014334,54.016018],[14.006196,54.032294],[13.995291,54.045722],[13.9817,54.056342],[13.965831,54.063788],[13.946056,54.066596],[13.926117,54.064032],[13.915863,54.056383],[13.924815,54.043891],[13.924815,54.036444],[13.91627,54.033637],[13.907237,54.027493],[13.899913,54.019721],[13.896983,54.012274],[13.89088,54.010159],[13.855968,54.002346],[13.858084,54.015774],[13.865571,54.024075],[13.873546,54.029975],[13.876313,54.036444],[13.871104,54.048651],[13.863617,54.049994],[13.854991,54.046332],[13.823009,54.037909],[13.808279,54.026313],[13.7942,54.018134],[13.774099,54.022773],[13.782074,54.042141],[13.809255,54.0751],[13.814952,54.101264],[13.806163,54.116645],[13.76531,54.141913],[13.75294,54.153144],[13.762218,54.164455],[13.777599,54.174018],[13.796153,54.17829],[13.814952,54.173651],[13.823741,54.163967],[13.844086,54.131293],[13.855968,54.118354],[13.882498,54.102444],[13.948416,54.079779],[13.986176,54.071234],[14.016612,54.060004],[14.192393,53.946112],[14.209483,53.938625],[14.210053,53.938463],[14.226573,53.934027],[14.237478,53.928656],[14.268077,53.92182],[14.367035,53.916978],[14.406749,53.92182],[14.445567,53.934027],[14.517345,53.965237],[14.781912,54.034613],[15.010102,54.06981],[15.288341,54.138861],[15.468516,54.167141],[15.665782,54.198432],[15.859711,54.249986],[16.020844,54.261786],[16.131521,54.283515],[16.118907,54.276028],[16.069347,54.263007],[16.091075,54.253974],[16.17921,54.263007],[16.17921,54.269192],[16.172374,54.269192],[16.172374,54.276597],[16.220063,54.276597],[16.219574,54.28148],[16.218516,54.282375],[16.216645,54.28205],[16.213227,54.283515],[16.21518,54.299628],[16.192149,54.300279],[16.137706,54.290269],[16.17213,54.300238],[16.213552,54.316107],[16.275401,54.358588],[16.262869,54.343695],[16.240489,54.330024],[16.231781,54.322577],[16.240896,54.32453],[16.259044,54.326728],[16.274913,54.330471],[16.288829,54.340237],[16.323904,54.349921],[16.336762,54.358588],[16.32488,54.373114],[16.305024,54.373481],[16.296235,54.367255],[16.281586,54.358588],[16.323985,54.401313],[16.439789,54.488267],[16.439789,54.482123],[16.434418,54.472357],[16.444509,54.469875],[16.460623,54.473456],[16.473399,54.482123],[16.479747,54.495551],[16.473888,54.499661],[16.460948,54.496487],[16.446056,54.488267],[16.466563,54.512152],[16.501313,54.532416],[16.569591,54.557196],[16.778494,54.575141],[16.85963,54.59394],[16.902192,54.598131],[16.939952,54.606024],[17.035818,54.66706],[17.337413,54.74901],[17.715668,54.790432],[17.885427,54.824123],[18.0,54.83021849117549],[18.0,53.5],[13.0,53.5],[13.0,54.436135528629706],[13.0088,54.438056],[13.03419,54.433661],[13.021495,54.426459],[13.021007,54.414537],[13.028575,54.401842]]],[[[15.773041,56.021755],[15.779796,56.024237],[15.777843,56.027289],[15.778331,56.031236],[15.781749,56.03266],[15.783702,56.034288],[15.788829,56.036078],[15.786143,56.031399],[15.782319,56.02733],[15.787446,56.028876],[15.801362,56.034206],[15.809825,56.032335],[15.802989,56.025173],[15.788748,56.012397],[15.773041,56.021755]]],[[[15.700857,56.105658],[15.698497,56.100531],[15.703298,56.089423],[15.703624,56.080715],[15.702159,56.076728],[15.696788,56.074286],[15.687673,56.074612],[15.683279,56.075385],[15.651134,56.089993],[15.642345,56.104641],[15.654959,56.119452],[15.669119,56.123928],[15.675304,56.120103],[15.68336,56.117499],[15.693533,56.11758],[15.705333,56.1164],[15.717784,56.116604],[15.726899,56.118354],[15.725841,56.112982],[15.714366,56.107001],[15.700857,56.105658]]],[[[15.457205,56.0987],[15.444591,56.099229],[15.440766,56.101549],[15.437511,56.10692],[15.438324,56.112169],[15.443696,56.112535],[15.455007,56.1199],[15.473969,56.122707],[15.481293,56.125759],[15.486746,56.125678],[15.48878,56.122219],[15.487478,56.115587],[15.484793,56.108751],[15.47641,56.100694],[15.464936,56.095771],[15.45989,56.096584],[15.457205,56.0987]]],[[[15.515391,56.105984],[15.513927,56.110541],[15.515066,56.115424],[15.520356,56.124457],[15.527354,56.128607],[15.533783,56.129299],[15.557709,56.125474],[15.565684,56.118516],[15.561127,56.106147],[15.556488,56.100246],[15.521495,56.102729],[15.515391,56.105984]]],[[[15.633067,56.107204],[15.627778,56.103502],[15.608572,56.097886],[15.598318,56.103909],[15.593679,56.110378],[15.595551,56.11286],[15.612722,56.126125],[15.615571,56.130764],[15.621755,56.133612],[15.628835,56.134914],[15.63502,56.13349],[15.635265,56.129014],[15.631847,56.12401],[15.630626,56.120388],[15.630707,56.116645],[15.632904,56.11168],[15.633067,56.107204]]],[[[15.76352,56.108873],[15.756277,56.107408],[15.750499,56.111314],[15.745942,56.117092],[15.714692,56.132636],[15.718761,56.138332],[15.729584,56.140733],[15.737153,56.140082],[15.748953,56.134833],[15.758881,56.133572],[15.765554,56.13109],[15.773448,56.133938],[15.777354,56.129096],[15.777192,56.123562],[15.77296,56.122219],[15.769216,56.118557],[15.767426,56.112901],[15.76352,56.108873]]],[[[16.883067,56.916246],[16.867849,56.907701],[16.858165,56.896796],[16.841807,56.844062],[16.830333,56.825832],[16.82781,56.82567],[16.781586,56.810614],[16.775076,56.805365],[16.768728,56.79678],[16.764415,56.787421],[16.762055,56.777655],[16.761404,56.767524],[16.756521,56.747463],[16.698497,56.645209],[16.689708,56.625434],[16.68629,56.602362],[16.682791,56.593492],[16.674327,56.583441],[16.664236,56.575344],[16.655935,56.571967],[16.64324,56.568427],[16.636974,56.559719],[16.631684,56.537828],[16.631521,56.532213],[16.63795,56.529202],[16.638438,56.524156],[16.635753,56.519192],[16.627126,56.508531],[16.624848,56.503648],[16.622813,56.486518],[16.61964,56.475328],[16.614024,56.465806],[16.599294,56.447414],[16.586111,56.426663],[16.575857,56.405748],[16.569591,56.38703],[16.568533,56.379055],[16.569591,56.356269],[16.566417,56.346137],[16.552257,56.332099],[16.549083,56.32217],[16.541189,56.306138],[16.490896,56.239569],[16.472667,56.22724],[16.450206,56.218655],[16.428477,56.217963],[16.412608,56.229315],[16.410492,56.238267],[16.412771,56.261176],[16.412608,56.270941],[16.398936,56.298245],[16.407237,56.319973],[16.408376,56.344631],[16.405772,56.38703],[16.414073,56.402777],[16.40797,56.4206],[16.397227,56.439602],[16.391449,56.458686],[16.398936,56.544664],[16.40211,56.554389],[16.419444,56.585639],[16.442556,56.60871],[16.446056,56.616645],[16.45281,56.637519],[16.62086,56.87226],[16.637869,56.882473],[16.659028,56.886542],[16.689708,56.887274],[16.716807,56.891832],[16.731293,56.903998],[16.748302,56.941881],[16.790812497361667,57.0],[16.90405373505051,57.0],[16.899181,56.996405],[16.871267,56.969184],[16.878429,56.956366],[16.884532,56.935614],[16.883067,56.916246]]]]}}