{"type":"FeatureCollection","properties":{"source":"Natural Earth 1:10m land (public domain)","source_url":"https://raw.githubusercontent.com/nvkelso/natural-earth-vector/master/geojson/ne_10m_land.geojson","clipped_to":{"lon":[13.5,17.5],"lat":[54.0,56.5]},"render_note":"properties.render is 'fill' for islands wholly inside the AOI and 'stroke' for coastline clipped at the AOI edge. Landmasses crossing the edge are lines, not polygons, so no fill can bleed across open sea.","note":"Basemap land for the offline console. Cartographic context only - nothing in the pipeline reads this file."},"features":[{"type":"Feature","properties":{"render":"stroke"},"geometry":{"type":"LineString","coordinates":[[13.5,54.09112],[13.50709,54.09105],[13.50709,54.09789],[13.5,54.10185]]}},{"type":"Feature","properties":{"render":"stroke"},"geometry":{"type":"LineString","coordinates":[[13.5,54.12759],[13.60271,54.13947],[13.63233,54.14753],[13.68344,54.16804],[13.71193,54.17365],[13.71648,54.16844],[13.71469,54.16405],[13.70826,54.16087],[13.69825,54.15933],[13.69825,54.15314],[13.72877,54.14387],[13.80812,54.10468],[13.80812,54.09789],[13.79371,54.0832],[13.78549,54.06391],[13.7732,54.04633],[13.7461,54.03644],[13.75815,54.03099],[13.78712,54.0091],[13.79651,54.0]]}},{"type":"Feature","properties":{"render":"stroke"},"geometry":{"type":"LineString","coordinates":[[14.05162,54.0],[14.05128,54.00507],[14.03745,54.02172],[14.01433,54.01602],[14.0062,54.03229],[13.99529,54.04572],[13.9817,54.05634],[13.96583,54.06379],[13.94606,54.0666],[13.92612,54.06403],[13.91586,54.05638],[13.92482,54.04389],[13.92482,54.03644],[13.91627,54.03364],[13.90724,54.02749],[13.89991,54.01972],[13.89698,54.01227],[13.89088,54.01016],[13.85597,54.00235],[13.85808,54.01577],[13.86557,54.02408],[13.87355,54.02998],[13.87631,54.03644],[13.8711,54.04865],[13.86362,54.04999],[13.85499,54.04633],[13.82301,54.03791],[13.80828,54.02631],[13.7942,54.01813],[13.7741,54.02277],[13.78207,54.04214],[13.80926,54.0751],[13.81495,54.10126],[13.80616,54.11664],[13.76531,54.14191],[13.75294,54.15314],[13.76222,54.16445],[13.7776,54.17402],[13.79615,54.17829],[13.81495,54.17365],[13.82374,54.16397],[13.84409,54.13129],[13.85597,54.11835],[13.8825,54.10244],[13.94842,54.07978],[13.98618,54.07123],[14.01661,54.06],[14.10922,54.0]]}},{"type":"Feature","properties":{"render":"stroke"},"geometry":{"type":"LineString","coordinates":[[14.64991,54.0],[14.78191,54.03461],[15.0101,54.06981],[15.28834,54.13886],[15.46852,54.16714],[15.66578,54.19843],[15.85971,54.24999],[16.02084,54.26179],[16.13152,54.28352],[16.11891,54.27603],[16.06935,54.26301],[16.09108,54.25397],[16.17921,54.26301],[16.17921,54.26919],[16.17237,54.26919],[16.17237,54.2766],[16.22006,54.2766],[16.21957,54.28148],[16.21852,54.28238],[16.21664,54.28205],[16.21323,54.28352],[16.21518,54.29963],[16.19215,54.30028],[16.13771,54.29027],[16.17213,54.30024],[16.21355,54.31611],[16.2754,54.35859],[16.26287,54.34369],[16.24049,54.33002],[16.23178,54.32258],[16.2409,54.32453],[16.25904,54.32673],[16.27491,54.33047],[16.28883,54.34024],[16.3239,54.34992],[16.33676,54.35859],[16.32488,54.37311],[16.30502,54.37348],[16.29623,54.36726],[16.28159,54.35859],[16.32399,54.40131],[16.43979,54.48827],[16.43979,54.48212],[16.43442,54.47236],[16.44451,54.46988],[16.46062,54.47346],[16.4734,54.48212],[16.47975,54.49555],[16.47389,54.49966],[16.46095,54.49649],[16.44606,54.48827],[16.46656,54.51215],[16.50131,54.53242],[16.56959,54.5572],[16.77849,54.57514],[16.85963,54.59394],[16.90219,54.59813],[16.93995,54.60602],[17.03582,54.66706],[17.33741,54.74901],[17.5,54.76681]]}},{"type":"Feature","properties":{"render":"stroke"},"geometry":{"type":"LineString","coordinates":[[16.15869,56.5],[16.11769,56.45527],[16.09522,56.41938],[16.06625,56.33596],[16.03826,56.25507],[16.0315,56.24982],[16.02036,56.24641],[16.0145,56.23827],[16.01043,56.22826],[16.0044,56.21943],[15.9878,56.20775],[15.94899,56.18744],[15.93214,56.17471],[15.87436,56.10273],[15.85174,56.08637],[15.83513,56.08796],[15.81674,56.09785],[15.78875,56.10643],[15.8187,56.14004],[15.82651,56.15937],[15.80616,56.16791],[15.75668,56.15672],[15.73121,56.15721],[15.71363,56.17471],[15.70248,56.17023],[15.69679,56.17316],[15.69174,56.17862],[15.68238,56.18154],[15.67018,56.18354],[15.65577,56.19257],[15.6482,56.19457],[15.63152,56.18574],[15.61183,56.16926],[15.59213,56.16055],[15.57594,56.17471],[15.58286,56.18081],[15.5923,56.19245],[15.5962,56.20376],[15.58644,56.20889],[15.57277,56.20629],[15.53492,56.18838],[15.49293,56.17634],[15.48658,56.17133],[15.48487,56.15567],[15.47999,56.15184],[15.45981,56.16108],[15.45232,56.16596],[15.44402,56.17284],[15.43328,56.1789],[15.41822,56.18154],[15.40398,56.17976],[15.3934,56.17512],[15.37672,56.16108],[15.37037,56.15143],[15.37013,56.14492],[15.36557,56.1411],[15.32097,56.13963],[15.3073,56.14175],[15.29526,56.14741],[15.31471,56.15339],[15.3226,56.15363],[15.31674,56.16327],[15.29526,56.18838],[15.27377,56.17121],[15.23455,56.15721],[15.19239,56.1529],[15.16188,56.1645],[15.15431,56.16865],[15.14633,56.16694],[15.13868,56.16315],[15.13087,56.16108],[15.09303,56.16108],[15.08522,56.16462],[15.08172,56.18207],[15.07553,56.18838],[15.0687,56.18773],[15.04428,56.18228],[15.03468,56.18154],[15.03826,56.17544],[15.04526,56.15961],[15.049,56.15363],[14.98846,56.16918],[14.95338,56.17292],[14.92823,56.1645],[14.90602,56.1612],[14.87322,56.16474],[14.84816,56.16397],[14.84962,56.14741],[14.83025,56.14265],[14.81332,56.15009],[14.79575,56.16128],[14.77459,56.16791],[14.72495,56.16763],[14.70134,56.16136],[14.6858,56.14741],[14.68295,56.13907],[14.681,56.12743],[14.6823,56.11713],[14.68897,56.11262],[14.70338,56.10944],[14.7103,56.10187],[14.71453,56.09268],[14.71998,56.08466],[14.7483,56.06074],[14.75799,56.04849],[14.76775,56.03071],[14.75636,56.02741],[14.74383,56.02143],[14.73219,56.01411],[14.7234,56.00654],[14.71551,56.00235],[14.71046,56.00658],[14.70574,56.01703],[14.6858,56.01703],[14.67905,56.00926],[14.67303,56.00532],[14.66472,56.00654],[14.6574,56.00926],[14.64975,56.01032],[14.62184,56.01016],[14.6115,56.01114],[14.60971,56.01533],[14.62379,56.02448],[14.61524,56.03018],[14.60768,56.03701],[14.60304,56.04597],[14.60328,56.05805],[14.58221,56.04377],[14.5713,56.05085],[14.56674,56.05561],[14.5691,56.05805],[14.55665,56.05537],[14.53346,56.04584],[14.52443,56.04377],[14.49741,56.04047],[14.47885,56.03168],[14.44557,56.00275],[14.40772,55.97704],[14.38559,55.96625],[14.36647,55.96186],[14.34645,55.95332],[14.33334,55.93452],[14.32325,55.91572],[14.31153,55.90717],[14.27101,55.89448],[14.23471,55.8627],[14.20851,55.82127],[14.1985,55.77998],[14.19418,55.74189],[14.19581,55.72565],[14.2059,55.70856],[14.2225,55.69685],[14.26108,55.68016],[14.27369,55.66763],[14.27589,55.65681],[14.27508,55.64614],[14.27605,55.635],[14.28452,55.62295],[14.29477,55.61518],[14.31666,55.60236],[14.35816,55.56367],[14.36752,55.5454],[14.36305,55.52363],[14.34881,55.51056],[14.29469,55.47553],[14.27711,55.46841],[14.2649,55.46125],[14.219,55.41376],[14.19972,55.39899],[14.18116,55.39082],[14.15838,55.38719],[14.09409,55.3874],[14.06422,55.39077],[14.03541,55.39712],[13.95623,55.42683],[13.93002,55.43277],[13.89723,55.43488],[13.88233,55.43305],[13.85678,55.42438],[13.8423,55.42121],[13.82814,55.42133],[13.78028,55.42744],[13.64731,55.42121],[13.62957,55.41828],[13.61818,55.41096],[13.60865,55.4018],[13.59596,55.39326],[13.58082,55.38882],[13.53785,55.39326],[13.50343,55.38837],[13.5,55.38704]]}},{"type":"Feature","properties":{"render":"fill"},"geometry":{"type":"Polygon","coordinates":[[[15.15138,55.1332],[15.14666,55.12824],[15.14454,55.12482],[15.14235,55.12214],[15.13771,55.11953],[15.14503,55.10489],[15.14772,55.09561],[15.14471,55.0871],[15.13429,55.07486],[15.1128,55.05463],[15.10662,55.04466],[15.11036,55.03636],[15.11036,55.03022],[15.11324,55.0183],[15.09735,55.00782],[15.08669,54.99921],[15.07267,54.99164],[15.02366,54.99934],[14.98287,55.00101],[14.92727,55.01369],[14.85861,55.03823],[14.78083,55.05113],[14.69956,55.08918],[14.68417,55.10135],[14.69704,55.12265],[14.70143,55.1647],[14.70574,55.22565],[14.70924,55.23583],[14.71754,55.24677],[14.73707,55.26667],[14.74513,55.28156],[14.75213,55.29877],[14.76092,55.30927],[14.77459,55.3039],[14.81495,55.27041],[14.82895,55.2617],[14.85142,55.2482],[14.88901,55.23322],[14.9268,55.2158],[14.95435,55.21925],[14.9734,55.21613],[14.98976,55.19603],[15.0005,55.18842],[15.01287,55.18382],[15.08454,55.15458],[15.1316,55.14545],[15.15138,55.1332]]]}},{"type":"Feature","properties":{"render":"fill"},"geometry":{"type":"Polygon","coordinates":[[[15.70533,56.1164],[15.71778,56.1166],[15.7269,56.11835],[15.72584,56.11298],[15.71437,56.107],[15.70086,56.10566],[15.6985,56.10053],[15.7033,56.08942],[15.70362,56.08071],[15.70216,56.07673],[15.69679,56.07429],[15.68767,56.07461],[15.68328,56.07538],[15.65113,56.08999],[15.64235,56.10464],[15.65496,56.11945],[15.66912,56.12393],[15.6753,56.1201],[15.68336,56.1175],[15.69353,56.11758],[15.70533,56.1164]]]}},{"type":"Feature","properties":{"render":"stroke"},"geometry":{"type":"LineString","coordinates":[[13.69825,54.39208],[13.72486,54.36359],[13.74195,54.35049],[13.76645,54.34492],[13.7531,54.3393],[13.74008,54.32982],[13.73015,54.31684],[13.72625,54.30052],[13.72625,54.28465],[13.72316,54.27839],[13.71274,54.279],[13.69093,54.28352],[13.70265,54.28352],[13.71193,54.28657],[13.71599,54.29328],[13.71193,54.30394],[13.70509,54.30394],[13.69483,54.29743],[13.67945,54.29401],[13.66334,54.29389],[13.65113,54.29719],[13.65113,54.30394],[13.68824,54.3133],[13.70362,54.32046],[13.71193,54.33185],[13.65992,54.32978],[13.63673,54.32551],[13.61695,54.31761],[13.67213,54.34032],[13.69093,54.34492],[13.69093,54.35175],[13.66407,54.35326],[13.65008,54.35244],[13.64031,54.34833],[13.6268,54.3391],[13.61834,54.34138],[13.61061,54.34797],[13.59929,54.35175],[13.5,54.34494]]}},{"type":"Feature","properties":{"render":"stroke"},"geometry":{"type":"LineString","coordinates":[[13.5,54.48816],[13.50709,54.48827],[13.5,54.49544]]}},{"type":"Feature","properties":{"render":"stroke"},"geometry":{"type":"LineString","coordinates":[[13.5,54.49619],[13.50929,54.50898],[13.51417,54.51313],[13.52076,54.51626],[13.52076,54.52367],[13.51295,54.53754],[13.5075,54.54466],[13.5,54.55013]]}},{"type":"Feature","properties":{"render":"stroke"},"geometry":{"type":"LineString","coordinates":[[13.5,54.55733],[13.50554,54.55972],[13.5088,54.56184],[13.51287,54.56354],[13.52076,54.56464],[13.52076,54.57079],[13.50831,54.57038],[13.50025,54.56607],[13.5,54.56585]]}},{"type":"Feature","properties":{"render":"stroke"},"geometry":{"type":"LineString","coordinates":[[13.5,54.58065],[13.59596,54.59138],[13.64047,54.58568],[13.67066,54.56623],[13.67726,54.54047],[13.65113,54.51626],[13.60678,54.49897],[13.58481,54.48652],[13.57545,54.47187],[13.57911,54.45506],[13.5879,54.43757],[13.59913,54.42267],[13.60955,54.4138],[13.63006,54.40754],[13.67742,54.40082],[13.69825,54.39208]]}},{"type":"Feature","properties":{"render":"stroke"},"geometry":{"type":"LineString","coordinates":[[16.62441,56.5],[16.62281,56.48652],[16.61964,56.47533],[16.61402,56.46581],[16.59929,56.44741],[16.58611,56.42666],[16.57586,56.40575],[16.56959,56.38703],[16.56853,56.37906],[16.56959,56.35627],[16.56642,56.34614],[16.55226,56.3321],[16.54908,56.32217],[16.54119,56.30614],[16.4909,56.23957],[16.47267,56.22724],[16.45021,56.21865],[16.42848,56.21796],[16.41261,56.22931],[16.41049,56.23827],[16.41277,56.26118],[16.41261,56.27094],[16.39894,56.29825],[16.40724,56.31997],[16.40838,56.34463],[16.40577,56.38703],[16.41407,56.40278],[16.40797,56.4206],[16.39723,56.4396],[16.39145,56.45869],[16.39505,56.5]]}},{"type":"Feature","properties":{"render":"fill"},"geometry":{"type":"Polygon","coordinates":[[[15.19134,55.32282],[15.19386,55.31969],[15.19321,55.31594],[15.19077,55.31912],[15.19134,55.32282]]]}},{"type":"Feature","properties":{"render":"fill"},"geometry":{"type":"Polygon","coordinates":[[[14.83839,56.01952],[14.84832,56.0183],[14.85483,56.01333],[14.84742,56.00056],[14.84164,56.00052],[14.83538,56.00629],[14.83399,56.01781],[14.83839,56.01952]]]}},{"type":"Feature","properties":{"render":"fill"},"geometry":{"type":"Polygon","coordinates":[[[15.78745,56.02888],[15.80136,56.03421],[15.80983,56.03234],[15.80299,56.02517],[15.78875,56.0124],[15.77304,56.02175],[15.7798,56.02424],[15.77784,56.02729],[15.77833,56.03124],[15.78175,56.03266],[15.7837,56.03429],[15.78883,56.03608],[15.78614,56.0314],[15.78232,56.02733],[15.78745,56.02888]]]}},{"type":"Feature","properties":{"render":"fill"},"geometry":{"type":"Polygon","coordinates":[[[14.97478,56.12283],[14.97983,56.12547],[14.98007,56.11925],[14.97389,56.11083],[14.96583,56.11644],[14.95501,56.11925],[14.95395,56.12299],[14.96396,56.12145],[14.97478,56.12283]]]}},{"type":"Feature","properties":{"render":"fill"},"geometry":{"type":"Polygon","coordinates":[[[15.48748,56.11559],[15.48479,56.10875],[15.47641,56.10069],[15.46494,56.09577],[15.45989,56.09658],[15.45721,56.0987],[15.44459,56.09923],[15.44077,56.10155],[15.43751,56.10692],[15.43832,56.11217],[15.4437,56.11254],[15.45501,56.1199],[15.47397,56.12271],[15.48129,56.12576],[15.48675,56.12568],[15.48878,56.12222],[15.48748,56.11559]]]}},{"type":"Feature","properties":{"render":"fill"},"geometry":{"type":"Polygon","coordinates":[[[15.55771,56.12547],[15.56568,56.11852],[15.56113,56.10615],[15.55649,56.10025],[15.52149,56.10273],[15.51539,56.10598],[15.51393,56.11054],[15.51507,56.11542],[15.52036,56.12446],[15.52735,56.12861],[15.53378,56.1293],[15.55771,56.12547]]]}},{"type":"Feature","properties":{"render":"fill"},"geometry":{"type":"Polygon","coordinates":[[[15.63527,56.12901],[15.63185,56.12401],[15.63063,56.12039],[15.63071,56.11664],[15.6329,56.11168],[15.63307,56.1072],[15.62778,56.1035],[15.60857,56.09789],[15.59832,56.10391],[15.59368,56.11038],[15.59555,56.11286],[15.61272,56.12613],[15.61557,56.13076],[15.62176,56.13361],[15.62884,56.13491],[15.63502,56.13349],[15.63527,56.12901]]]}},{"type":"Feature","properties":{"render":"fill"},"geometry":{"type":"Polygon","coordinates":[[[15.77735,56.1291],[15.77719,56.12356],[15.77296,56.12222],[15.76922,56.11856],[15.76743,56.1129],[15.76352,56.10887],[15.75628,56.10741],[15.7505,56.11131],[15.74594,56.11709],[15.71469,56.13264],[15.71876,56.13833],[15.72958,56.14073],[15.73715,56.14008],[15.74895,56.13483],[15.75888,56.13357],[15.76555,56.13109],[15.77345,56.13394],[15.77735,56.1291]]]}},{"type":"Feature","properties":{"render":"fill"},"geometry":{"type":"Polygon","coordinates":[[[15.39324,56.14883],[15.39324,56.16254],[15.40675,56.15554],[15.40056,56.14509],[15.39324,56.14883]]]}}]}